[{"OBJECT_NAME":"STARLINK-32090","OBJECT_ID":"2024-086K","EPOCH":"2026-03-09T00:17:14.763552","MEAN_MOTION":15.27581318,"ECCENTRICITY":5.687e-5,"INCLINATION":42.9985,"RA_OF_ASC_NODE":67.5931,"ARG_OF_PERICENTER":296.4773,"MEAN_ANOMALY":63.602,"EPHEMERIS_TYPE":0,"CLASSIFICATION_TYPE":"U","NORAD_CAT_ID":59691,"ELEMENT_SET_NO":999,"REV_AT_EPOCH":10396,"BSTAR":3.950809e-5,"MEAN_MOTION_DOT":8.26e-6,"MEAN_MOTION_DDOT":0},{"OBJECT_NAME":"CZ-4B DEB","OBJECT_ID":"1999-057H","EPOCH":"2026-03-09T17:25:29.363520","MEAN_MOTION":15.25756771,"ECCENTRICITY":0.00339549,"INCLINATION":98.6728,"RA_OF_ASC_NODE":149.1557,"ARG_OF_PERICENTER":175.409,"MEAN_ANOMALY":184.7463,"EPHEMERIS_TYPE":0,"CLASSIFICATION_TYPE":"U","NORAD_CAT_ID":26121,"ELEMENT_SET_NO":999,"REV_AT_EPOCH":41150,"BSTAR":0.00075758105,"MEAN_MOTION_DOT":0.00019602,"MEAN_MOTION_DDOT":0}]
